STARLINK-32398          
1 61624U 24191D   26181.53072215  .00000212  00000+0  17240-4 0  9991
2 61624  43.0011 237.2669 0001109 281.4970  78.5757 15.27571550 94793
STARLINK-32365          
1 61625U 24191E   26181.57682252 -.00017804  00000+0 -63767-3 0  9995
2 61625  42.9994 236.7519 0001342 250.2235 109.8472 15.27647216 94804
STARLINK-32333          
1 61626U 24191F   26181.00002315  .00012645  00000+0  46835-3 0  9993
2 61626  43.0012 243.8930 0001362 270.1675 339.9632 15.27570970  5870
STARLINK-32399          
1 61627U 24191G   26181.49056132  .00000077  00000+0  12331-4 0  9994
2 61627  42.9979 230.0357 0001155 271.2231  88.8488 15.27577090 94879
STARLINK-32421          
1 61628U 24191H   26181.53714646  .00001745  00000+0  72920-4 0  9994
2 61628  43.0050 237.3114 0001497 258.1965 101.8718 15.27580697 94790
STARLINK-32403          
1 61629U 24191J   26180.54606478 -.00001341  00000+0 -39196-4 0  9990
2 61629  42.9996 242.7759 0001403 267.9834  92.0857 15.27584604 94644
STARLINK-32390          
1 61630U 24191K   26181.54485093 -.00000448  00000+0 -67710-5 0  9992
2 61630  43.0047 237.3724 0001376 270.4607  89.6087 15.27574406 94795
STARLINK-32348          
1 61631U 24191L   26180.88150813 -.00000103  00000+0  57906-5 0  9991
2 61631  43.0010 244.4596 0001211 268.9725  91.0988 15.27577341 94656
STARLINK-32455          
1 61632U 24191M   26180.89693181  .00001440  00000+0  61850-4 0  9999
2 61632  42.9974 244.5821 0000951 313.8630  46.2143 15.27568709 94654
STARLINK-32396          
1 61633U 24191N   26181.53923170 -.00001348  00000+0 -39471-4 0  9999
2 61633  43.0013 240.7967 0001491 272.0262  88.0419 15.27567156 94753
STARLINK-32355          
1 61634U 24191P   26180.89948535  .00000244  00000+0  18387-4 0  9995
2 61634  43.0006 244.5999 0002157 271.1001  88.9604 15.27582952 94659
STARLINK-32370          
1 61635U 24191Q   26181.57042877 -.00003457  00000+0 -11626-3 0  9995
2 61635  43.0007 236.7011 0001158 280.2271  79.8450 15.27549789 94805
STARLINK-32405          
1 61636U 24191R   26181.55721872 -.00000124  00000+0  50133-5 0  9998
2 61636  43.0019 240.9335 0001629 286.9152  73.1521 15.27575729 94752
STARLINK-32419          
1 61637U 24191S   26181.54099513 -.00000070  00000+0  69919-5 0  9990
2 61637  43.0069 237.3403 0001324 268.1458  91.9242 15.27573514 94799
STARLINK-32320          
1 61638U 24191T   26181.49568489 -.00000177  00000+0  30862-5 0  9991
2 61638  42.9985 241.3350 0001604 280.8824  79.1847 15.27570147 94743
STARLINK-32341          
1 61639U 24191U   26181.53329418 -.00000828  00000+0 -20573-4 0  9995
2 61639  43.0026 237.2832 0001352 275.1275  84.9422 15.27566998 94795
STARLINK-32339          
1 61640U 24191V   26181.56655066  .00000515  00000+0  28221-4 0  9990
2 61640  42.9962 236.6754 0001046 289.6852  70.3887 15.27575355 94792
STARLINK-32327          
1 61641U 24191W   26181.58066442 -.00013733  00000+0 -48942-3 0  9996
2 61641  43.0031 236.7766 0003413 270.0270  90.0190 15.27640512 94800
STARLINK-32264          
1 61642U 24191X   26181.54432296  .00134152  00000+0  13484-2 0  9996
2 61642  42.9882 222.5305 0022634  68.8580 291.4701 15.63963449 94967
STARLINK-32337          
1 61643U 24191Y   26180.86914073 -.00000317  00000+0 -19927-5 0  9997
2 61643  42.9997 240.8975 0001142 281.3162  78.7561 15.27576708 95453
STARLINK-32238          
1 61661U 24193A   26181.48630951  .00000701  00000+0  35824-4 0  9996
2 61661  53.1615 287.2702 0001686  95.2640 264.8554 15.30189181 93797
STARLINK-32310          
1 61662U 24193B   26181.48233291 -.00000159  00000+0  66342-5 0  9991
2 61662  53.1602 286.5371 0001179  94.9069 265.2067 15.31700012 93805
STARLINK-32308          
1 61663U 24193C   26181.47975382  .00001208  00000+0  46913-4 0  9991
2 61663  53.1605 285.0991 0001591  92.1138 268.0047 15.34381252 93821
STARLINK-32301          
1 61664U 24193D   26181.49700760 -.00000903  00000+0 -17329-4 0  9992
2 61664  53.1620 286.6267 0001225 100.1001 260.0138 15.31703467 93809
STARLINK-32439          
1 61665U 24193E   26181.49897253  .00000023  00000+0  12913-4 0  9992
2 61665  53.1613 287.3416 0001436 101.3570 258.7592 15.30191347 93797
STARLINK-32428          
1 61666U 24193F   26181.44109115  .00000607  00000+0  31304-4 0  9994
2 61666  53.1618 286.9895 0001207  99.6698 260.4440 15.31704830 93795
STARLINK-32414          
1 61667U 24193G   26181.48736305  .00000470  00000+0  27996-4 0  9996
2 61667  53.1619 287.2760 0001640  90.1579 269.9610 15.30196143 93791
STARLINK-32441          
1 61668U 24193H   26181.47892457 -.00000977  00000+0 -20857-4 0  9990
2 61668  53.1605 287.2240 0001361  85.5595 274.5561 15.30187462 93797
STARLINK-32400          
1 61669U 24193J   26181.58334491  .00761796  00000+0  21462-1 0  9993
2 61669  53.1589 284.2948 0002138 113.9892 262.3661 15.33643413  5863
STARLINK-32449          
1 61670U 24193K   26181.45976118  .00000829  00000+0  38484-4 0  9997
2 61670  53.1619 287.1046 0001049  99.3764 260.7356 15.31703107 93792
