OBJECT_NAME,OBJECT_ID,EPOCH,MEAN_MOTION,ECCENTRICITY,INCLINATION,RA_OF_ASC_NODE,ARG_OF_PERICENTER,MEAN_ANOMALY,EPHEMERIS_TYPE,CLASSIFICATION_TYPE,NORAD_CAT_ID,ELEMENT_SET_NO,REV_AT_EPOCH,BSTAR,MEAN_MOTION_DOT,MEAN_MOTION_DDOT
STARLINK-32398,2024-191D,2026-06-30T12:44:14.393760,15.27571550,.00011097,43.0011,237.2669,281.4970,78.5757,0,U,61624,999,9479,.17239966E-4,.212E-5,0
STARLINK-32365,2024-191E,2026-06-30T13:50:37.465728,15.27647216,.00013427,42.9994,236.7519,250.2235,109.8472,0,U,61625,999,9480,-.63767263E-3,-.17804E-3,0
STARLINK-32333,2024-191F,2026-06-30T00:00:02.000160,15.27570970,.00013624,43.0012,243.8930,270.1675,339.9632,0,U,61626,999,587,.46835282E-3,.12645E-3,0
STARLINK-32399,2024-191G,2026-06-30T11:46:24.498048,15.27577090,.00011556,42.9979,230.0357,271.2231,88.8488,0,U,61627,999,9487,.12331463E-4,.77E-6,0
STARLINK-32421,2024-191H,2026-06-30T12:53:29.454144,15.27580697,.0001497,43.0050,237.3114,258.1965,101.8718,0,U,61628,999,9479,.72919778E-4,.1745E-4,0
STARLINK-32403,2024-191J,2026-06-29T13:06:19.996992,15.27584604,.00014035,42.9996,242.7759,267.9834,92.0857,0,U,61629,999,9464,-.39196136E-4,-.1341E-4,0
STARLINK-32390,2024-191K,2026-06-30T13:04:35.120352,15.27574406,.00013769,43.0047,237.3724,270.4607,89.6087,0,U,61630,999,9479,-.6771041E-5,-.448E-5,0
STARLINK-32348,2024-191L,2026-06-29T21:09:22.302432,15.27577341,.0001211,43.0010,244.4596,268.9725,91.0988,0,U,61631,999,9465,.5790568E-5,-.103E-5,0
STARLINK-32455,2024-191M,2026-06-29T21:31:34.908384,15.27568709,.00009517,42.9974,244.5821,313.8630,46.2143,0,U,61632,999,9465,.61850386E-4,.144E-4,0
STARLINK-32396,2024-191N,2026-06-30T12:56:29.618880,15.27567156,.00014914,43.0013,240.7967,272.0262,88.0419,0,U,61633,999,9475,-.39471238E-4,-.1348E-4,0
STARLINK-32355,2024-191P,2026-06-29T21:35:15.534240,15.27582952,.00021574,43.0006,244.5999,271.1001,88.9604,0,U,61634,999,9465,.18387244E-4,.244E-5,0
STARLINK-32370,2024-191Q,2026-06-30T13:41:25.045728,15.27549789,.0001158,43.0007,236.7011,280.2271,79.8450,0,U,61635,999,9480,-.11626416E-3,-.3457E-4,0
STARLINK-32405,2024-191R,2026-06-30T13:22:23.697408,15.27575729,.00016293,43.0019,240.9335,286.9152,73.1521,0,U,61636,999,9475,.501327E-5,-.124E-5,0
STARLINK-32419,2024-191S,2026-06-30T12:59:01.979232,15.27573514,.00013241,43.0069,237.3403,268.1458,91.9242,0,U,61637,999,9479,.6991915E-5,-.7E-6,0
STARLINK-32320,2024-191T,2026-06-30T11:53:47.174496,15.27570147,.00016047,42.9985,241.3350,280.8824,79.1847,0,U,61638,999,9474,.3086199E-5,-.177E-5,0
STARLINK-32341,2024-191U,2026-06-30T12:47:56.617152,15.27566998,.00013529,43.0026,237.2832,275.1275,84.9422,0,U,61639,999,9479,-.20572779E-4,-.828E-5,0
STARLINK-32339,2024-191V,2026-06-30T13:35:49.977024,15.27575355,.00010465,42.9962,236.6754,289.6852,70.3887,0,U,61640,999,9479,.28220513E-4,.515E-5,0
STARLINK-32327,2024-191W,2026-06-30T13:56:09.405888,15.27640512,.00034139,43.0031,236.7766,270.0270,90.0190,0,U,61641,999,9480,-.48941938E-3,-.13733E-3,0
STARLINK-32264,2024-191X,2026-06-30T13:03:49.503744,15.63963449,.00226347,42.9882,222.5305,68.8580,291.4701,0,U,61642,999,9496,.13483641E-2,.134152E-2,0
STARLINK-32337,2024-191Y,2026-06-29T20:51:33.759072,15.27576708,.0001142,42.9997,240.8975,281.3162,78.7561,0,U,61643,999,9545,-.1992686E-5,-.317E-5,0
STARLINK-32238,2024-193A,2026-06-30T11:40:17.141664,15.30189181,.00016869,53.1615,287.2702,95.2640,264.8554,0,U,61661,999,9379,.35823586E-4,.701E-5,0
STARLINK-32310,2024-193B,2026-06-30T11:34:33.563424,15.31700012,.00011799,53.1602,286.5371,94.9069,265.2067,0,U,61662,999,9380,.6634221E-5,-.159E-5,0
STARLINK-32308,2024-193C,2026-06-30T11:30:50.730048,15.34381252,.00015916,53.1605,285.0991,92.1138,268.0047,0,U,61663,999,9382,.46912751E-4,.1208E-4,0
STARLINK-32301,2024-193D,2026-06-30T11:55:41.456640,15.31703467,.00012255,53.1620,286.6267,100.1001,260.0138,0,U,61664,999,9380,-.17328985E-4,-.903E-5,0
STARLINK-32439,2024-193E,2026-06-30T11:58:31.226592,15.30191347,.00014367,53.1613,287.3416,101.3570,258.7592,0,U,61665,999,9379,.12913399E-4,.23E-6,0
STARLINK-32428,2024-193F,2026-06-30T10:35:10.275360,15.31704830,.00012077,53.1618,286.9895,99.6698,260.4440,0,U,61666,999,9379,.31303593E-4,.607E-5,0
STARLINK-32414,2024-193G,2026-06-30T11:41:48.167520,15.30196143,.00016402,53.1619,287.2760,90.1579,269.9610,0,U,61667,999,9379,.27996325E-4,.47E-5,0
STARLINK-32441,2024-193H,2026-06-30T11:29:39.082848,15.30187462,.00013614,53.1605,287.2240,85.5595,274.5561,0,U,61668,999,9379,-.20857104E-4,-.977E-5,0
STARLINK-32400,2024-193J,2026-06-30T14:00:01.000224,15.33643413,.00021383,53.1589,284.2948,113.9892,262.3661,0,U,61669,999,586,.21462108E-1,.761796E-2,0
STARLINK-32449,2024-193K,2026-06-30T11:02:03.365952,15.31703107,.00010499,53.1619,287.1046,99.3764,260.7356,0,U,61670,999,9379,.38483623E-4,.829E-5,0
